CUTE-1 (CO-55)          
1 27844U 03031E   25201.92478538  .00000249  00000+0  12754-3 0  9994
2 27844  98.6761 209.6650 0010835  70.3048 289.9299 14.24021802144529
CUBESAT XI-IV (CO-57)   
1 27848U 03031J   25201.96285722  .00000217  00000+0  11502-3 0  9998
2 27848  98.6788 209.6771 0010797  85.4702 274.7710 14.23353038144255
CUBESAT XI-V            
1 28895U 05043F   25201.94147422  .00001304  00000+0  22003-3 0  9994
2 28895  98.2546 346.8222 0014753 171.1188 189.0281 14.71121083 53029
CUTE-1.7+APD II (CO-65) 
1 32785U 08021C   25201.90470609  .00003643  00000+0  26263-3 0  9998
2 32785  97.7873 173.3888 0011815  76.5446 283.7096 15.04747930935297
CANX-2                  
1 32790U 08021H   25201.87788001  .00003508  00000+0  27248-3 0  9992
2 32790  97.8171 171.9492 0012052  76.6409 283.6158 15.01939348935015
SEEDS II (CO-66)        
1 32791U 08021J   25201.93820304  .00009829  00000+0  46603-3 0  9991
2 32791  97.7293 182.9292 0004880  51.5158 308.6513 15.19497348936778
SWISSCUBE               
1 35932U 09051B   25201.71196406  .00000776  00000+0  16668-3 0  9990
2 35932  98.4257  98.7110 0007255 153.6889 206.4681 14.61411027840729
BEESAT-1                
1 35933U 09051C   25201.42900287  .00000650  00000+0  14317-3 0  9999
2 35933  98.4188  98.7041 0005420 164.4837 195.6530 14.60813674840737
ITUPSAT1                
1 35935U 09051E   25201.95945584  .00000609  00000+0  13819-3 0  9998
2 35935  98.4281  98.7497 0007443 175.8692 184.2570 14.59607365840408
TISAT 1                 
1 36799U 10035E   25201.48732965  .00008847  00000+0  44621-3 0  9993
2 36799  98.0555 118.1077 0002249 357.2328   2.8891 15.17398055817176
AEROCUBE 4.5A           
1 38767U 12048K   25201.91921879  .00016181  00000+0  41168-3 0  9991
2 38767  64.6474  87.4156 0097266 264.9464  94.0560 15.34977055321163
STRAND-1                
1 39090U 13009E   25201.76168595  .00000239  00000+0  95113-4 0  9997
2 39090  98.3835  25.3778 0009572 136.0161 224.1789 14.36842662649466
BRITE-AUSTRIA           
1 39091U 13009F   25201.92122281  .00000159  00000+0  68887-4 0  9997
2 39091  98.3894  24.7813 0010942 143.9005 216.2922 14.36326720649498
NEE-01 PEGASO           
1 39151U 13018B   25201.85911440  .00002290  00000+0  23723-3 0  9996
2 39151  98.0777 331.6481 0013632 168.8816 191.2705 14.91011846661281
POPACS 1                
1 39268U 13055D   25201.78655350  .00058085  64411-7  47522-3 0  9993
2 39268  80.9674  35.9019 0224012 200.9919 158.2024 15.44202704620988
POPACS 2                
1 39269U 13055E   25201.85844463  .00012269  00000+0  23745-3 0  9998
2 39269  80.9961 159.4688 0473335 167.2785 194.0885 14.76721049614069
POPACS 3                
1 39270U 13055F   25201.80507990  .00009430  00000+0  23745-3 0  9992
2 39270  81.0024 226.4660 0580625 354.0939   5.3589 14.48743843590452
ZACUBE-1 (TSHEPISOSAT)  
1 39417U 13066B   25201.63195232  .00004035  00000+0  35012-3 0  9996
2 39417  97.7817 158.4404 0041683 275.0448  84.6016 14.96968369631054
WNISAT-1                
1 39423U 13066H   25201.93253693  .00001024  00000+0  19756-3 0  9994
2 39423  97.6809  10.6301 0164963 194.7224 164.9142 14.57160865618477
TRITON-1                
1 39427U 13066M   25201.87071891  .00001477  00000+0  19202-3 0  9997
2 39427  97.8341 114.6011 0092879 231.9247 127.3560 14.79245521625069
GOMX-1                  
1 39430U 13066Q   25201.86838922  .00001639  00000+0  25884-3 0  9999
2 39430  97.6800  57.9923 0133625  60.5928 300.8540 14.67775379621281
CUBEBUG-2 (LO-74)       
1 39440U 13066AA  25201.84266197  .00003577  00000+0  36177-3 0  9997
2 39440  97.8496 146.1251 0062941  45.0184 315.6110 14.90169937627583
NEE-02 KRYSAOR          
1 39441U 13066AB  25201.56900752  .00001924  00000+0  22503-3 0  9991
2 39441  97.8560 139.3241 0070361  76.4145 284.4894 14.84497452628121
FUNCUBE-1 (AO-73)       
1 39444U 13066AE  25201.83532251  .00004880  00000+0  36311-3 0  9995
2 39444  97.7848 163.9222 0040381 245.9156 113.7842 15.02787387629788
UWE-3                   
1 39446U 13066AG  25201.82013598  .00003926  00000+0  37172-3 0  9990
2 39446  97.8250 152.5248 0052349 344.3166  15.6429 14.93187845628065
BRITE-CA1 (TORONTO)     
1 40020U 14033L   25201.91122455  .00000699  00000+0  11524-3 0  9995
2 40020  97.9307 333.0652 0078672 257.1199 102.1211 14.71681273593475
DUCHIFAT-1              
1 40021U 14033M   25201.94357458  .00018013  00000+0  62227-3 0  9997
2 40021  98.0945 219.9175 0009495 162.0166 198.1410 15.29965992604648
NANOSATC-BR1            
1 40024U 14033Q   25201.91498645  .00009194  00000+0  44092-3 0  9991
2 40024  98.0912 202.7363 0003043 235.4690 124.6256 15.19147409603481
QB50P1                  
1 40025U 14033R   25201.93825998  .00005523  00000+0  33473-3 0  9992
2 40025  98.0844 186.8496 0008354 275.5189  84.5086 15.10997245602883
QB50P2                  
1 40032U 14033Y   25201.90002697  .00004535  00000+0  29292-3 0  9996
2 40032  98.0448 175.3329 0007543 210.1931 149.8862 15.08769604602608
PERSEUS-M2              
1 40037U 14033AD  25201.89980731  .00001433  00000+0  14042-3 0  9994
2 40037  97.9561 141.9697 0011299 323.4608  36.5840 14.93851184601296
PERSEUS-M1              
1 40039U 14033AF  25201.75237269  .00001497  00000+0  14646-3 0  9992
2 40039  97.9294 136.6367 0011052 322.7241  37.3210 14.93843937601127
POLYITAN-1              
1 40042U 14033AJ  25201.93276203  .00011397  00000+0  53986-3 0  9997
2 40042  98.1040 195.2272 0008831 207.3055 152.7715 15.19480439603061
TIGRISAT                
1 40043U 14033AK  25201.89397119  .00001774  00000+0  21897-3 0  9997
2 40043  97.7400 355.8580 0052703  81.1466 279.5710 14.83112660596482
AEROCUBE 6A             
1 40045U 14033AM  25201.89672791  .00004171  00000+0  40249-3 0  9997
2 40045  97.6960   9.2312 0043662  44.1332 316.3357 14.92686847597102
AEROCUBE 6B             
1 40046U 14033AN  25201.92545919  .00004307  00000+0  40370-3 0  9999
2 40046  97.6931   8.4517 0041945  37.1417 323.2692 14.93876356597204
CANX-4                  
1 40055U 14034C   25201.51333563  .00000765  00000+0  10793-3 0  9995
2 40055  98.3586  58.9184 0013020   2.2675 357.8592 14.80292521595448
CANX-5                  
1 40056U 14034D   25201.85332625  .00000780  00000+0  10979-3 0  9994
2 40056  98.3588  59.2965 0013000   1.3937 358.7307 14.80306983586308
UKUBE-1                 
1 40074U 14037F   25201.90090064  .00006442  00000+0  44709-3 0  9990
2 40074  98.3954 167.8389 0002136 139.4178 220.7206 15.05971137598563
BRITE-PL2 (HEWELIUSZ)   
1 40119U 14049B   25201.84817018  .00001867  00000+0  18621-3 0  9992
2 40119  97.8927 307.1806 0015755 125.2092 235.0605 14.92703289591986
AEROCUBE 5C             
1 40965U 15058B   25201.45326906  .00001582  00000+0  14877-3 0  9993
2 40965  64.7660 212.6515 0158993 187.2997 172.5801 14.88782806316225
AEROCUBE 7              
1 40966U 15058C   25201.69683162  .00002077  00000+0  17841-3 0  9994
2 40966  64.7619 200.4324 0150479 187.1884 172.7074 14.92122399316435
FOX-1A (AO-85)          
1 40967U 15058D   25201.79368405  .00001696  00000+0  16208-3 0  9998
2 40967  64.7740 226.8784 0155140 181.9825 178.0692 14.88294855 64202
SINOD-D 1               
1 40968U 15058E   25201.43446890  .00002338  00000+0  20179-3 0  9991
2 40968  64.7740 215.0422 0144676 181.0729 179.0097 14.92184639 67091
SNAP-3 ALICE            
1 40970U 15058G   25201.94216268  .00014668  00000+0  59175-3 0  9991
2 40970  64.7647 130.1747 0077850 182.2091 177.8706 15.22225936 65968
LMRST-SAT               
1 40971U 15058H   25201.53813030  .00001677  00000+0  16051-3 0  9999
2 40971  64.7740 223.4506 0157645 183.5750 176.4250 14.88017627 64166
SNAP-3 EDDIE            
1 40972U 15058J   25201.91349279  .00016062  00000+0  63183-3 0  9993
2 40972  64.7573 122.7014 0082989 184.1483 175.8968 15.22629241 68077
PROPCUBE 3              
1 40973U 15058K   25201.72078639  .00001840  00000+0  16382-3 0  9999
2 40973  64.7672 205.7750 0152065 185.5102 174.4346 14.91026791 65329
BISONSAT                
1 40974U 15058L   25201.96646065  .00005714  00000+0  34296-3 0  9998
2 40974  64.7616 156.8832 0114002 183.9926 176.0298 15.06594141 65555
SNAP-3 JIMI             
1 40975U 15058M   25201.95012175  .00002880  00000+0  21890-3 0  9994
2 40975  64.7646 183.9381 0136380 184.6619 175.3238 14.97200064 64540
PROPCUBE 1 (FLORA)      
1 40976U 15058N   25201.60056698  .00001933  00000+0  18905-3 0  9996
2 40976  64.7735 241.0748 0157208 185.3620 174.5815 14.86719687 66925
SINOD-D 3               
1 40977U 15058P   25201.80497977  .00002346  00000+0  21025-3 0  9994
2 40977  64.7712 228.0323 0146816 184.6424 175.3339 14.90535845 65300
HORYU-4                 
1 41340U 16012D   25201.17770538  .00017400  00000+0  44242-3 0  9990
2 41340  30.9949 218.6174 0006640 130.8533 229.2689 15.38323074519049
RAVAN                   
1 41849U 16067B   25201.82773350  .00011049  00000+0  36807-3 0  9992
2 41849  98.0416  54.2623 0010393  92.7287 267.5142 15.31262611476652
CELTEE 1                
1 41850U 16067C   25201.52057303  .00003913  00000+0  21388-3 0  9993
2 41850  98.1053  40.7666 0000535  51.9189 308.2090 15.14957439475580
OPTICUBE 04             
1 41851U 16067D   25201.51275983  .00001683  00000+0  11546-3 0  9996
2 41851  98.0934  31.4100 0017070 153.2607 206.9503 15.07422469475160
AEROCUBE 8D             
1 41852U 16067E   25201.53022242  .00004928  00000+0  24569-3 0  9991
2 41852  98.1085  42.1709 0003848 177.7962 182.3288 15.18061622475648
AEROCUBE 8C             
1 41853U 16067F   25201.59838016  .00005131  00000+0  25450-3 0  9999
2 41853  98.0933  39.9635 0007285 118.9755 241.2208 15.18202245475643
PROMETHEUS 2-1          
1 41854U 16067G   25201.85693487  .00044027  00000+0  73679-3 0  9993
2 41854  98.0732  60.1344 0007589 104.9930 255.2161 15.51732145476807
